FORMOSAT 7-3            
1 44343U 19036E   26068.82630502  .00006445  00000+0  37650-3 0  9997
2 44343  23.9981 141.9797 0001061 150.4425 209.6139 15.08933962368215
STARLINK-3856           
1 52459U 22049J   26068.27860816  .00003094  00000+0  21236-3 0  9994
2 52459  53.2179  60.9676 0001524  87.1423 272.9744 15.08850733212184
